[{"OBJECT_NAME":"YAMAL 601","OBJECT_ID":"2019-031A","EPOCH":"2026-04-04T13:01:11.795232","MEAN_MOTION":1.00272171,"ECCENTRICITY":0.00025704,"INCLINATION":0.0179,"RA_OF_ASC_NODE":206.5024,"ARG_OF_PERICENTER":176.4908,"MEAN_ANOMALY":54.1716,"EPHEMERIS_TYPE":0,"CLASSIFICATION_TYPE":"U","NORAD_CAT_ID":44307,"ELEMENT_SET_NO":999,"REV_AT_EPOCH":2517,"BSTAR":0,"MEAN_MOTION_DOT":0,"MEAN_MOTION_DDOT":0},{"OBJECT_NAME":"AT&T T-16","OBJECT_ID":"2019-034A","EPOCH":"2026-04-05T12:15:57.733632","MEAN_MOTION":1.00271803,"ECCENTRICITY":0.00010601,"INCLINATION":0.0246,"RA_OF_ASC_NODE":106.8777,"ARG_OF_PERICENTER":70.7609,"MEAN_ANOMALY":99.3083,"EPHEMERIS_TYPE":0,"CLASSIFICATION_TYPE":"U","NORAD_CAT_ID":44333,"ELEMENT_SET_NO":999,"REV_AT_EPOCH":2490,"BSTAR":0,"MEAN_MOTION_DOT":-1.14e-6,"MEAN_MOTION_DDOT":0},{"OBJECT_NAME":"EUTELSAT 7C","OBJECT_ID":"2019-034B","EPOCH":"2026-04-05T08:04:38.574048","MEAN_MOTION":1.00271066,"ECCENTRICITY":0.00033363,"INCLINATION":0.0642,"RA_OF_ASC_NODE":181.4561,"ARG_OF_PERICENTER":181.8633,"MEAN_ANOMALY":318.4766,"EPHEMERIS_TYPE":0,"CLASSIFICATION_TYPE":"U","NORAD_CAT_ID":44334,"ELEMENT_SET_NO":999,"REV_AT_EPOCH":610,"BSTAR":0,"MEAN_MOTION_DOT":4.9e-7,"MEAN_MOTION_DDOT":0},{"OBJECT_NAME":"BEIDOU-3 IGSO-2","OBJECT_ID":"2019-035A","EPOCH":"2026-03-27T19:44:54.998592","MEAN_MOTION":1.00291912,"ECCENTRICITY":0.00390451,"INCLINATION":55.2326,"RA_OF_ASC_NODE":159.578,"ARG_OF_PERICENTER":213.6954,"MEAN_ANOMALY":226.2541,"EPHEMERIS_TYPE":0,"CLASSIFICATION_TYPE":"U","NORAD_CAT_ID":44337,"ELEMENT_SET_NO":999,"REV_AT_EPOCH":2485,"BSTAR":0,"MEAN_MOTION_DOT":-1.61e-6,"MEAN_MOTION_DDOT":0},{"OBJECT_NAME":"MERIDIAN 8","OBJECT_ID":"2019-046A","EPOCH":"2026-04-04T22:35:41.633376","MEAN_MOTION":2.00616624,"ECCENTRICITY":0.70534125,"INCLINATION":63.0789,"RA_OF_ASC_NODE":60.1454,"ARG_OF_PERICENTER":274.6662,"MEAN_ANOMALY":15.0015,"EPHEMERIS_TYPE":0,"CLASSIFICATION_TYPE":"U","NORAD_CAT_ID":44453,"ELEMENT_SET_NO":999,"REV_AT_EPOCH":4887,"BSTAR":0,"MEAN_MOTION_DOT":-8.9e-7,"MEAN_MOTION_DDOT":0},{"OBJECT_NAME":"COSMOS 2539","OBJECT_ID":"2019-048A","EPOCH":"2026-04-05T12:47:54.671424","MEAN_MOTION":1.00272663,"ECCENTRICITY":2.87e-5,"INCLINATION":0.0239,"RA_OF_ASC_NODE":116.9101,"ARG_OF_PERICENTER":1.5095,"MEAN_ANOMALY":279.3934,"EPHEMERIS_TYPE":0,"CLASSIFICATION_TYPE":"U","NORAD_CAT_ID":44457,"ELEMENT_SET_NO":999,"REV_AT_EPOCH":2449,"BSTAR":0,"MEAN_MOTION_DOT":8.3e-7,"MEAN_MOTION_DDOT":0},{"OBJECT_NAME":"BREEZE-M R/B","OBJECT_ID":"2019-048B","EPOCH":"2026-04-04T14:28:53.182848","MEAN_MOTION":0.90283612,"ECCENTRICITY":0.073493,"INCLINATION":6.682,"RA_OF_ASC_NODE":73.6185,"ARG_OF_PERICENTER":128.2822,"MEAN_ANOMALY":238.6925,"EPHEMERIS_TYPE":0,"CLASSIFICATION_TYPE":"U","NORAD_CAT_ID":44458,"ELEMENT_SET_NO":999,"REV_AT_EPOCH":2189,"BSTAR":0,"MEAN_MOTION_DOT":-1.71e-6,"MEAN_MOTION_DDOT":0},{"OBJECT_NAME":"EDRS-C","OBJECT_ID":"2019-049A","EPOCH":"2026-04-05T13:27:38.734272","MEAN_MOTION":1.00271174,"ECCENTRICITY":0.0001395,"INCLINATION":0.0415,"RA_OF_ASC_NODE":110.8602,"ARG_OF_PERICENTER":276.0403,"MEAN_ANOMALY":151.3719,"EPHEMERIS_TYPE":0,"CLASSIFICATION_TYPE":"U","NORAD_CAT_ID":44475,"ELEMENT_SET_NO":999,"REV_AT_EPOCH":2448,"BSTAR":0,"MEAN_MOTION_DOT":-2.6e-6,"MEAN_MOTION_DDOT":0},{"OBJECT_NAME":"INTELSAT 39 (IS-39)","OBJECT_ID":"2019-049B","EPOCH":"2026-04-05T14:50:38.290272","MEAN_MOTION":1.00270088,"ECCENTRICITY":3.689e-5,"INCLINATION":0.0184,"RA_OF_ASC_NODE":215.3825,"ARG_OF_PERICENTER":303.7549,"MEAN_ANOMALY":319.3851,"EPHEMERIS_TYPE":0,"CLASSIFICATION_TYPE":"U","NORAD_CAT_ID":44476,"ELEMENT_SET_NO":999,"REV_AT_EPOCH":2440,"BSTAR":0,"MEAN_MOTION_DOT":0,"MEAN_MOTION_DDOT":0},{"OBJECT_NAME":"AMOS-17","OBJECT_ID":"2019-050A","EPOCH":"2026-04-05T12:49:32.014848","MEAN_MOTION":1.00273007,"ECCENTRICITY":0.00015302,"INCLINATION":0.0191,"RA_OF_ASC_NODE":279.7766,"ARG_OF_PERICENTER":108.0093,"MEAN_ANOMALY":15.4154,"EPHEMERIS_TYPE":0,"CLASSIFICATION_TYPE":"U","NORAD_CAT_ID":44479,"ELEMENT_SET_NO":999,"REV_AT_EPOCH":2445,"BSTAR":0,"MEAN_MOTION_DOT":1.11e-6,"MEAN_MOTION_DDOT":0},{"OBJECT_NAME":"AEHF-5 (USA 292)","OBJECT_ID":"2019-051A","EPOCH":"2026-04-05T15:13:22.339776","MEAN_MOTION":1.00271178,"ECCENTRICITY":0.00704736,"INCLINATION":1.527,"RA_OF_ASC_NODE":330.8799,"ARG_OF_PERICENTER":3.3501,"MEAN_ANOMALY":181.1305,"EPHEMERIS_TYPE":0,"CLASSIFICATION_TYPE":"U","NORAD_CAT_ID":44481,"ELEMENT_SET_NO":999,"REV_AT_EPOCH":2453,"BSTAR":0,"MEAN_MOTION_DOT":-2.57e-6,"MEAN_MOTION_DDOT":0},{"OBJECT_NAME":"CZ-3C DEB","OBJECT_ID":"2010-057BM","EPOCH":"2026-04-01T12:26:34.961280","MEAN_MOTION":2.2373135,"ECCENTRICITY":0.71830898,"INCLINATION":20.2104,"RA_OF_ASC_NODE":90.3229,"ARG_OF_PERICENTER":176.4355,"MEAN_ANOMALY":195.2887,"EPHEMERIS_TYPE":0,"CLASSIFICATION_TYPE":"U","NORAD_CAT_ID":44527,"ELEMENT_SET_NO":999,"REV_AT_EPOCH":7669,"BSTAR":0.00015928575,"MEAN_MOTION_DOT":-3.2e-7,"MEAN_MOTION_DDOT":0},{"OBJECT_NAME":"COSMOS 2541","OBJECT_ID":"2019-065A","EPOCH":"2026-04-03T00:06:47.860704","MEAN_MOTION":2.00623375,"ECCENTRICITY":0.64822058,"INCLINATION":62.7096,"RA_OF_ASC_NODE":163.9408,"ARG_OF_PERICENTER":272.176,"MEAN_ANOMALY":20.4146,"EPHEMERIS_TYPE":0,"CLASSIFICATION_TYPE":"U","NORAD_CAT_ID":44552,"ELEMENT_SET_NO":999,"REV_AT_EPOCH":4771,"BSTAR":0,"MEAN_MOTION_DOT":6.6e-7,"MEAN_MOTION_DDOT":0},{"OBJECT_NAME":"FREGAT R/B","OBJECT_ID":"2019-065B","EPOCH":"2026-03-29T21:43:12.165024","MEAN_MOTION":2.01539187,"ECCENTRICITY":0.66909248,"INCLINATION":63.3397,"RA_OF_ASC_NODE":161.3968,"ARG_OF_PERICENTER":261.3079,"MEAN_ANOMALY":23.5188,"EPHEMERIS_TYPE":0,"CLASSIFICATION_TYPE":"U","NORAD_CAT_ID":44553,"ELEMENT_SET_NO":999,"REV_AT_EPOCH":4790,"BSTAR":0,"MEAN_MOTION_DOT":1.281e-5,"MEAN_MOTION_DDOT":0},{"OBJECT_NAME":"COSMOS 1897 DEB","OBJECT_ID":"1987-096G","EPOCH":"2026-04-05T05:19:43.629600","MEAN_MOTION":1.00483629,"ECCENTRICITY":0.0021036,"INCLINATION":10.9708,"RA_OF_ASC_NODE":326.7999,"ARG_OF_PERICENTER":299.2439,"MEAN_ANOMALY":247.4255,"EPHEMERIS_TYPE":0,"CLASSIFICATION_TYPE":"U","NORAD_CAT_ID":44572,"ELEMENT_SET_NO":999,"REV_AT_EPOCH":7025,"BSTAR":0,"MEAN_MOTION_DOT":-4.6e-7,"MEAN_MOTION_DDOT":0},{"OBJECT_NAME":"ARIANE 44LP DEB","OBJECT_ID":"1992-060J","EPOCH":"2026-04-05T13:23:13.781760","MEAN_MOTION":2.23469956,"ECCENTRICITY":0.7181011,"INCLINATION":7.1706,"RA_OF_ASC_NODE":356.3918,"ARG_OF_PERICENTER":344.2563,"MEAN_ANOMALY":215.8024,"EPHEMERIS_TYPE":0,"CLASSIFICATION_TYPE":"U","NORAD_CAT_ID":44573,"ELEMENT_SET_NO":999,"REV_AT_EPOCH":9791,"BSTAR":-0.0076360783,"MEAN_MOTION_DOT":-7.5e-6,"MEAN_MOTION_DDOT":0},{"OBJECT_NAME":"LUCH DEB","OBJECT_ID":"1994-082G","EPOCH":"2026-04-05T13:21:28.950048","MEAN_MOTION":1.00689681,"ECCENTRICITY":0.00186746,"INCLINATION":14.6022,"RA_OF_ASC_NODE":354.5953,"ARG_OF_PERICENTER":89.483,"MEAN_ANOMALY":78.5145,"EPHEMERIS_TYPE":0,"CLASSIFICATION_TYPE":"U","NORAD_CAT_ID":44582,"ELEMENT_SET_NO":999,"REV_AT_EPOCH":4551,"BSTAR":0,"MEAN_MOTION_DOT":-3.06e-6,"MEAN_MOTION_DDOT":0},{"OBJECT_NAME":"SL-12 DEB","OBJECT_ID":"1999-027E","EPOCH":"2026-04-04T14:01:54.708672","MEAN_MOTION":1.4600749,"ECCENTRICITY":0.321533,"INCLINATION":7.2102,"RA_OF_ASC_NODE":123.6189,"ARG_OF_PERICENTER":158.6815,"MEAN_ANOMALY":209.5101,"EPHEMERIS_TYPE":0,"CLASSIFICATION_TYPE":"U","NORAD_CAT_ID":44588,"ELEMENT_SET_NO":999,"REV_AT_EPOCH":6597,"BSTAR":0,"MEAN_MOTION_DOT":-7.9e-7,"MEAN_MOTION_DDOT":0},{"OBJECT_NAME":"EUTELSAT 5 WEST B","OBJECT_ID":"2019-067A","EPOCH":"2026-04-05T05:52:32.726208","MEAN_MOTION":1.00272865,"ECCENTRICITY":0.0003462,"INCLINATION":0.066,"RA_OF_ASC_NODE":12.3503,"ARG_OF_PERICENTER":12.4462,"MEAN_ANOMALY":251.881,"EPHEMERIS_TYPE":0,"CLASSIFICATION_TYPE":"U","NORAD_CAT_ID":44624,"ELEMENT_SET_NO":999,"REV_AT_EPOCH":2370,"BSTAR":0,"MEAN_MOTION_DOT":-4.1e-7,"MEAN_MOTION_DDOT":0},{"OBJECT_NAME":"BREEZE-M R/B","OBJECT_ID":"2019-067C","EPOCH":"2026-04-04T05:38:35.428992","MEAN_MOTION":0.93850755,"ECCENTRICITY":0.6502744,"INCLINATION":23.1647,"RA_OF_ASC_NODE":61.007,"ARG_OF_PERICENTER":11.6451,"MEAN_ANOMALY":357.6821,"EPHEMERIS_TYPE":0,"CLASSIFICATION_TYPE":"U","NORAD_CAT_ID":44626,"ELEMENT_SET_NO":999,"REV_AT_EPOCH":2040,"BSTAR":0,"MEAN_MOTION_DOT":-2.1e-6,"MEAN_MOTION_DDOT":0},{"OBJECT_NAME":"TJS-4","OBJECT_ID":"2019-070A","EPOCH":"2026-04-05T14:51:16.452288","MEAN_MOTION":1.00274133,"ECCENTRICITY":0.00024875,"INCLINATION":0.0349,"RA_OF_ASC_NODE":61.9548,"ARG_OF_PERICENTER":350.7663,"MEAN_ANOMALY":87.5411,"EPHEMERIS_TYPE":0,"CLASSIFICATION_TYPE":"U","NORAD_CAT_ID":44637,"ELEMENT_SET_NO":999,"REV_AT_EPOCH":2381,"BSTAR":0,"MEAN_MOTION_DOT":-1.69e-6,"MEAN_MOTION_DDOT":0},{"OBJECT_NAME":"ATLAS 5 CENTAUR DEB","OBJECT_ID":"2018-079X","EPOCH":"2026-04-04T05:48:13.038912","MEAN_MOTION":1.7265323,"ECCENTRICITY":0.46307061,"INCLINATION":12.9314,"RA_OF_ASC_NODE":67.1203,"ARG_OF_PERICENTER":248.3302,"MEAN_ANOMALY":57.2552,"EPHEMERIS_TYPE":0,"CLASSIFICATION_TYPE":"U","NORAD_CAT_ID":44661,"ELEMENT_SET_NO":999,"REV_AT_EPOCH":4732,"BSTAR":0,"MEAN_MOTION_DOT":-9.8e-7,"MEAN_MOTION_DDOT":0},{"OBJECT_NAME":"ATLAS 5 CENTAUR DEB","OBJECT_ID":"2018-079AB","EPOCH":"2026-04-05T11:12:23.412096","MEAN_MOTION":1.68623054,"ECCENTRICITY":0.4655412,"INCLINATION":12.604,"RA_OF_ASC_NODE":78.5525,"ARG_OF_PERICENTER":226.0015,"MEAN_ANOMALY":84.7946,"EPHEMERIS_TYPE":0,"CLASSIFICATION_TYPE":"U","NORAD_CAT_ID":44665,"ELEMENT_SET_NO":999,"REV_AT_EPOCH":4214,"BSTAR":0,"MEAN_MOTION_DOT":-8.4e-7,"MEAN_MOTION_DDOT":0},{"OBJECT_NAME":"ATLAS 5 CENTAUR DEB","OBJECT_ID":"2018-079AK","EPOCH":"2026-04-04T17:37:12.201600","MEAN_MOTION":1.77547427,"ECCENTRICITY":0.47066511,"INCLINATION":13.2943,"RA_OF_ASC_NODE":49.4802,"ARG_OF_PERICENTER":283.6804,"MEAN_ANOMALY":29.7895,"EPHEMERIS_TYPE":0,"CLASSIFICATION_TYPE":"U","NORAD_CAT_ID":44673,"ELEMENT_SET_NO":999,"REV_AT_EPOCH":4856,"BSTAR":0,"MEAN_MOTION_DOT":-1.2e-6,"MEAN_MOTION_DDOT":0}]
